ORBCOMM FM05            
1 25117U 97084F   25230.81046404  .00001074  00000+0  33836-3 0  9990
2 25117  45.0152  67.3395 0002601 156.8014 203.2955 14.46095537449672
ORBCOMM FM06            
1 25118U 97084G   25230.67969844  .00001182  00000+0  36727-3 0  9999
2 25118  45.0143  67.6362 0001595 146.8722 324.2058 14.46237229450571
ORBCOMM FM07            
1 25119U 97084H   25231.01718492  .00001166  00000+0  36269-3 0  9993
2 25119  45.0139  66.7812 0003447 156.1793 203.9219 14.46242441450638
ORBCOMM FM03            
1 25158U 98007B   25230.88298543  .00000731  00000+0  30191-3 0  9991
2 25158 107.9678 264.4126 0043914 141.2776 219.1524 14.34619002433177
ORBCOMM FM04            
1 25159U 98007C   25231.06559685  .00000711  00000+0  29417-3 0  9997
2 25159 107.9663 268.0518 0039617 138.5234 221.8924 14.34864494433351
ORBCOMM FM17            
1 25413U 98046A   25230.56215490  .00000625  00000+0  26554-3 0  9993
2 25413  44.9954 323.2075 0004130 190.1453 169.9312 14.35191103412135
ORBCOMM FM18            
1 25414U 98046B   25230.71044799  .00000779  00000+0  29779-3 0  9995
2 25414  44.9916 238.2271 0006771 253.1440 106.8666 14.38680500413259
ORBCOMM FM19            
1 25415U 98046C   25231.09135457  .00000821  00000+0  31224-3 0  9996
2 25415  44.9928 238.5163 0005525 254.2108 152.9250 14.38493298413465
